{
  "type": "FeatureCollection",
  "features": [
    {
      "type": "Feature",
      "properties": {
        "norad_id": 24876,
        "name": "GPS BIIR-2  (PRN 13)",
        "group": "gps-ops",
        "lat": 4.362887590934185,
        "lon": -76.97270154437146,
        "alt_km": 20299.505836388467,
        "timestamp": "2025-12-09T11:33:55.058233+00:00",
        "meta_object_name": "GPS BIIR-2  (PRN 13)",
        "meta_object_id": "1997-035A",
        "meta_epoch": "2025-12-08T17:51:24.025248",
        "meta_mean_motion": 2.00563531,
        "meta_eccentricity": 0.0096734,
        "meta_inclination": 55.8934,
        "meta_ra_of_asc_node": 106.0252,
        "meta_arg_of_pericenter": 57.0084,
        "meta_mean_anomaly": 303.8909,
        "meta_ephemeris_type": 0,
        "meta_classification_type": "U",
        "meta_norad_cat_id": 24876,
        "meta_element_set_no": 999,
        "meta_rev_at_epoch": 20813,
        "meta_bstar": 0,
        "meta_mean_motion_dot": 1.8e-07,
        "meta_mean_motion_ddot": 0,
        "tle_line1": "1 24876U 97035A   25342.74402807  .00000018  00000+0  00000+0 0  9996",
        "tle_line2": "2 24876  55.8934 106.0252 0096734  57.0084 303.8909  2.00563531208133"
      },
      "geometry": {
        "type": "Point",
        "coordinates": [
          -76.97270154437146,
          4.362887590934185
        ]
      }
    },
    {
      "type": "Feature",
      "properties": {
        "norad_id": 26360,
        "name": "GPS BIIR-4  (PRN 20)",
        "group": "gps-ops",
        "lat": -54.81344088876614,
        "lon": -70.44929439933375,
        "alt_km": 20093.229103343525,
        "timestamp": "2025-12-09T11:33:55.058262+00:00",
        "meta_object_name": "GPS BIIR-4  (PRN 20)",
        "meta_object_id": "2000-025A",
        "meta_epoch": "2025-12-09T04:14:58.003008",
        "meta_mean_motion": 2.00567914,
        "meta_eccentricity": 0.0038848,
        "meta_inclination": 55.0431,
        "meta_ra_of_asc_node": 26.982,
        "meta_arg_of_pericenter": 241.6461,
        "meta_mean_anomaly": 163.8162,
        "meta_ephemeris_type": 0,
        "meta_classification_type": "U",
        "meta_norad_cat_id": 26360,
        "meta_element_set_no": 999,
        "meta_rev_at_epoch": 18746,
        "meta_bstar": 0,
        "meta_mean_motion_dot": -9.2e-07,
        "meta_mean_motion_ddot": 0,
        "tle_line1": "1 26360U 00025A   25343.17706022 -.00000092  00000+0  00000+0 0  9996",
        "tle_line2": "2 26360  55.0431  26.9820 0038848 241.6461 163.8162  2.00567914187466"
      },
      "geometry": {
        "type": "Point",
        "coordinates": [
          -70.44929439933375,
          -54.81344088876614
        ]
      }
    },
    {
      "type": "Feature",
      "properties": {
        "norad_id": 26407,
        "name": "GPS BIIR-5  (PRN 22)",
        "group": "gps-ops",
        "lat": 52.0220720646149,
        "lon": -21.51694860233677,
        "alt_km": 20496.733037544764,
        "timestamp": "2025-12-09T11:33:55.058278+00:00",
        "meta_object_name": "GPS BIIR-5  (PRN 22)",
        "meta_object_id": "2000-040A",
        "meta_epoch": "2025-12-09T01:51:39.036096",
        "meta_mean_motion": 2.00567849,
        "meta_eccentricity": 0.0126212,
        "meta_inclination": 54.8916,
        "meta_ra_of_asc_node": 222.7147,
        "meta_arg_of_pericenter": 301.7415,
        "meta_mean_anomaly": 231.4474,
        "meta_ephemeris_type": 0,
        "meta_classification_type": "U",
        "meta_norad_cat_id": 26407,
        "meta_element_set_no": 999,
        "meta_rev_at_epoch": 18613,
        "meta_bstar": 0,
        "meta_mean_motion_dot": 8e-08,
        "meta_mean_motion_ddot": 0,
        "tle_line1": "1 26407U 00040A   25343.07753514  .00000008  00000+0  00000+0 0  9998",
        "tle_line2": "2 26407  54.8916 222.7147 0126212 301.7415 231.4474  2.00567849186139"
      },
      "geometry": {
        "type": "Point",
        "coordinates": [
          -21.51694860233677,
          52.0220720646149
        ]
      }
    },
    {
      "type": "Feature",
      "properties": {
        "norad_id": 27663,
        "name": "GPS BIIR-8  (PRN 16)",
        "group": "gps-ops",
        "lat": -45.537620450129836,
        "lon": 88.1968364294566,
        "alt_km": 20573.41872195304,
        "timestamp": "2025-12-09T11:33:55.058292+00:00",
        "meta_object_name": "GPS BIIR-8  (PRN 16)",
        "meta_object_id": "2003-005A",
        "meta_epoch": "2025-12-08T15:56:33.296928",
        "meta_mean_motion": 2.00571063,
        "meta_eccentricity": 0.0147293,
        "meta_inclination": 54.9243,
        "meta_ra_of_asc_node": 222.5404,
        "meta_arg_of_pericenter": 51.7448,
        "meta_mean_anomaly": 318.8801,
        "meta_ephemeris_type": 0,
        "meta_classification_type": "U",
        "meta_norad_cat_id": 27663,
        "meta_element_set_no": 999,
        "meta_rev_at_epoch": 16749,
        "meta_bstar": 0,
        "meta_mean_motion_dot": 1.2e-07,
        "meta_mean_motion_ddot": 0,
        "tle_line1": "1 27663U 03005A   25342.66427427  .00000012  00000+0  00000+0 0  9997",
        "tle_line2": "2 27663  54.9243 222.5404 0147293  51.7448 318.8801  2.00571063167497"
      },
      "geometry": {
        "type": "Point",
        "coordinates": [
          88.1968364294566,
          -45.537620450129836
        ]
      }
    },
    {
      "type": "Feature",
      "properties": {
        "norad_id": 28190,
        "name": "GPS BIIR-11 (PRN 19)",
        "group": "gps-ops",
        "lat": 30.948716925636532,
        "lon": -51.84269449629208,
        "alt_km": 20356.532300139133,
        "timestamp": "2025-12-09T11:33:55.058305+00:00",
        "meta_object_name": "GPS BIIR-11 (PRN 19)",
        "meta_object_id": "2004-009A",
        "meta_epoch": "2025-12-09T02:41:41.936352",
        "meta_mean_motion": 2.00560834,
        "meta_eccentricity": 0.0108305,
        "meta_inclination": 54.989,
        "meta_ra_of_asc_node": 283.3651,
        "meta_arg_of_pericenter": 167.5856,
        "meta_mean_anomaly": 325.415,
        "meta_ephemeris_type": 0,
        "meta_classification_type": "U",
        "meta_norad_cat_id": 28190,
        "meta_element_set_no": 999,
        "meta_rev_at_epoch": 15913,
        "meta_bstar": 0,
        "meta_mean_motion_dot": -5.3e-07,
        "meta_mean_motion_ddot": 0,
        "tle_line1": "1 28190U 04009A   25343.11229093 -.00000053  00000+0  00000+0 0  9994",
        "tle_line2": "2 28190  54.9890 283.3651 0108305 167.5856 325.4150  2.00560834159137"
      },
      "geometry": {
        "type": "Point",
        "coordinates": [
          -51.84269449629208,
          30.948716925636532
        ]
      }
    },
    {
      "type": "Feature",
      "properties": {
        "norad_id": 28474,
        "name": "GPS BIIR-13 (PRN 02)",
        "group": "gps-ops",
        "lat": 53.783789999925645,
        "lon": 81.08516040811892,
        "alt_km": 20573.808621788477,
        "timestamp": "2025-12-09T11:33:55.058317+00:00",
        "meta_object_name": "GPS BIIR-13 (PRN 02)",
        "meta_object_id": "2004-045A",
        "meta_epoch": "2025-12-08T20:14:45.178080",
        "meta_mean_motion": 2.0056922,
        "meta_eccentricity": 0.0170688,
        "meta_inclination": 55.2426,
        "meta_ra_of_asc_node": 332.5625,
        "meta_arg_of_pericenter": 309.0781,
        "meta_mean_anomaly": 49.896,
        "meta_ephemeris_type": 0,
        "meta_classification_type": "U",
        "meta_norad_cat_id": 28474,
        "meta_element_set_no": 999,
        "meta_rev_at_epoch": 15461,
        "meta_bstar": 0,
        "meta_mean_motion_dot": -8.3e-07,
        "meta_mean_motion_ddot": 0,
        "tle_line1": "1 28474U 04045A   25342.84357845 -.00000083  00000+0  00000+0 0  9998",
        "tle_line2": "2 28474  55.2426 332.5625 0170688 309.0781  49.8960  2.00569220154614"
      },
      "geometry": {
        "type": "Point",
        "coordinates": [
          81.08516040811892,
          53.783789999925645
        ]
      }
    },
    {
      "type": "Feature",
      "properties": {
        "norad_id": 28874,
        "name": "GPS BIIRM-1 (PRN 17)",
        "group": "gps-ops",
        "lat": 45.149329028585264,
        "lon": -34.55290572945252,
        "alt_km": 20380.170413359898,
        "timestamp": "2025-12-09T11:33:55.058344+00:00",
        "meta_object_name": "GPS BIIRM-1 (PRN 17)",
        "meta_object_id": "2005-038A",
        "meta_epoch": "2025-12-09T01:52:55.800768",
        "meta_mean_motion": 2.0057855,
        "meta_eccentricity": 0.013175,
        "meta_inclination": 55.0352,
        "meta_ra_of_asc_node": 280.8483,
        "meta_arg_of_pericenter": 293.4065,
        "meta_mean_anomaly": 193.8993,
        "meta_ephemeris_type": 0,
        "meta_classification_type": "U",
        "meta_norad_cat_id": 28874,
        "meta_element_set_no": 999,
        "meta_rev_at_epoch": 14802,
        "meta_bstar": 0,
        "meta_mean_motion_dot": -5e-07,
        "meta_mean_motion_ddot": 0,
        "tle_line1": "1 28874U 05038A   25343.07842362 -.00000050  00000+0  00000+0 0  9998",
        "tle_line2": "2 28874  55.0352 280.8483 0131750 293.4065 193.8993  2.00578550148029"
      },
      "geometry": {
        "type": "Point",
        "coordinates": [
          -34.55290572945252,
          45.149329028585264
        ]
      }
    }
  ]
}